SL-14 R/B               
1 21423U 91042B   26023.98754515  .00000793  00000+0  97262-4 0  9993
2 21423  82.4915 262.1103 0017889  32.3703 327.8604 14.81785628846456
ERS-1                   
1 21574U 91050A   26023.51469947  .00000663  00000+0  22680-3 0  9997
2 21574  98.7897  40.6140 0031524 338.1615  21.8227 14.39406514809237
ARIANE 40 R/B           
1 21610U 91050F   26024.15845343  .00000787  00000+0  24818-3 0  9999
2 21610  98.2103  78.0462 0002870 186.7384 173.3769 14.42856683812572
INTERCOSMOS 25          
1 21819U 91086A   26023.82522872  .00001580  00000+0  31179-3 0  9991
2 21819  82.6091 337.1206 1486140 213.6121 136.1471 12.11873676491257
SL-8 R/B                
1 21876U 92008B   26024.15670368  .00000141  00000+0  12944-3 0  9991
2 21876  82.9287 300.9025 0033314 258.9709 213.8313 13.75968070703293
SL-8 R/B                
1 21938U 92020B   26024.19825348  .00000214  00000+0  20597-3 0  9992
2 21938  82.9304 186.7874 0030083  63.3005 109.4315 13.75541156695015
USA 81                  
1 21949U 92023A   26023.80986934  .00000413  00000+0  14577-3 0  9995
2 21949  85.0111 157.3162 0002100 115.0539 245.0872 14.32347985 88364
COSMOS 2219             
1 22219U 92076A   26023.95571292 -.00000098  00000+0 -26639-4 0  9991
2 22219  71.0613 111.5877 0020825 269.1400  90.7337 14.14081240712054
SL-16 R/B               
1 22220U 92076B   26024.15807375 -.00000109  00000+0 -30252-4 0  9999
2 22220  71.0000 282.1800 0012417 173.5515 298.8622 14.16850587715523
COSMOS 2221             
1 22236U 92080A   26024.09400787  .00004612  00000+0  40840-3 0  9994
2 22236  82.5066 321.7833 0014279 349.9500  10.1434 14.95990110774127
SL-16 R/B               
1 22285U 92093B   26023.65185926  .00000162  00000+0  10724-3 0  9992
2 22285  71.0222  98.8159 0004346 343.7062  16.3921 14.15442887706781
COSMOS 2228             
1 22286U 92094A   26024.13947578  .00003619  00000+0  31136-3 0  9997
2 22286  82.5177 279.9656 0019614  91.2246 269.1224 14.96972986769392
