CCSDS_OMM_VERS = 2.0
CREATION_DATE  = 
ORIGINATOR     = 

OBJECT_NAME    = SL-14 R/B
OBJECT_ID      = 1991-042B
CENTER_NAME    = EARTH
REF_FRAME      = TEME
TIME_SYSTEM    = UTC
MEAN_ELEMENT_THEORY = SGP/SGP4

EPOCH          = 2026-01-23T23:42:03.900960
MEAN_MOTION    = 14.81785628
ECCENTRICITY   = .0017889
INCLINATION    = 82.4915
RA_OF_ASC_NODE = 262.1103
ARG_OF_PERICENTER = 32.3703
MEAN_ANOMALY   = 327.8604

EPHEMERIS_TYPE = 0
CLASSIFICATION_TYPE = U
NORAD_CAT_ID   = 21423
ELEMENT_SET_NO = 999
REV_AT_EPOCH   = 84645
BSTAR          = .97262E-4
MEAN_MOTION_DOT = .793E-5
MEAN_MOTION_DDOT = 0

CCSDS_OMM_VERS = 2.0
CREATION_DATE  = 
ORIGINATOR     = 

OBJECT_NAME    = ERS-1
OBJECT_ID      = 1991-050A
CENTER_NAME    = EARTH
REF_FRAME      = TEME
TIME_SYSTEM    = UTC
MEAN_ELEMENT_THEORY = SGP/SGP4

EPOCH          = 2026-01-23T12:21:10.034208
MEAN_MOTION    = 14.39406514
ECCENTRICITY   = .0031524
INCLINATION    = 98.7897
RA_OF_ASC_NODE = 40.6140
ARG_OF_PERICENTER = 338.1615
MEAN_ANOMALY   = 21.8227

EPHEMERIS_TYPE = 0
CLASSIFICATION_TYPE = U
NORAD_CAT_ID   = 21574
ELEMENT_SET_NO = 999
REV_AT_EPOCH   = 80923
BSTAR          = .22679918E-3
MEAN_MOTION_DOT = .663E-5
MEAN_MOTION_DDOT = 0

CCSDS_OMM_VERS = 2.0
CREATION_DATE  = 
ORIGINATOR     = 

OBJECT_NAME    = ARIANE 40 R/B
OBJECT_ID      = 1991-050F
CENTER_NAME    = EARTH
REF_FRAME      = TEME
TIME_SYSTEM    = UTC
MEAN_ELEMENT_THEORY = SGP/SGP4

EPOCH          = 2026-01-24T03:48:10.376352
MEAN_MOTION    = 14.42856683
ECCENTRICITY   = .000287
INCLINATION    = 98.2103
RA_OF_ASC_NODE = 78.0462
ARG_OF_PERICENTER = 186.7384
MEAN_ANOMALY   = 173.3769

EPHEMERIS_TYPE = 0
CLASSIFICATION_TYPE = U
NORAD_CAT_ID   = 21610
ELEMENT_SET_NO = 999
REV_AT_EPOCH   = 81257
BSTAR          = .24818E-3
MEAN_MOTION_DOT = .787E-5
MEAN_MOTION_DDOT = 0

CCSDS_OMM_VERS = 2.0
CREATION_DATE  = 
ORIGINATOR     = 

OBJECT_NAME    = INTERCOSMOS 25
OBJECT_ID      = 1991-086A
CENTER_NAME    = EARTH
REF_FRAME      = TEME
TIME_SYSTEM    = UTC
MEAN_ELEMENT_THEORY = SGP/SGP4

EPOCH          = 2026-01-23T19:48:19.761408
MEAN_MOTION    = 12.11873676
ECCENTRICITY   = .14861408
INCLINATION    = 82.6091
RA_OF_ASC_NODE = 337.1206
ARG_OF_PERICENTER = 213.6121
MEAN_ANOMALY   = 136.1471

EPHEMERIS_TYPE = 0
CLASSIFICATION_TYPE = U
NORAD_CAT_ID   = 21819
ELEMENT_SET_NO = 999
REV_AT_EPOCH   = 49125
BSTAR          = .31178712E-3
MEAN_MOTION_DOT = .158E-4
MEAN_MOTION_DDOT = 0

CCSDS_OMM_VERS = 2.0
CREATION_DATE  = 
ORIGINATOR     = 

OBJECT_NAME    = SL-8 R/B
OBJECT_ID      = 1992-008B
CENTER_NAME    = EARTH
REF_FRAME      = TEME
TIME_SYSTEM    = UTC
MEAN_ELEMENT_THEORY = SGP/SGP4

EPOCH          = 2026-01-24T03:45:39.197952
MEAN_MOTION    = 13.75968070
ECCENTRICITY   = .0033314
INCLINATION    = 82.9287
RA_OF_ASC_NODE = 300.9025
ARG_OF_PERICENTER = 258.9709
MEAN_ANOMALY   = 213.8313

EPHEMERIS_TYPE = 0
CLASSIFICATION_TYPE = U
NORAD_CAT_ID   = 21876
ELEMENT_SET_NO = 999
REV_AT_EPOCH   = 70329
BSTAR          = .12944E-3
MEAN_MOTION_DOT = .141E-5
MEAN_MOTION_DDOT = 0

CCSDS_OMM_VERS = 2.0
CREATION_DATE  = 
ORIGINATOR     = 

OBJECT_NAME    = SL-8 R/B
OBJECT_ID      = 1992-020B
CENTER_NAME    = EARTH
REF_FRAME      = TEME
TIME_SYSTEM    = UTC
MEAN_ELEMENT_THEORY = SGP/SGP4

EPOCH          = 2026-01-24T04:45:29.100672
MEAN_MOTION    = 13.75541156
ECCENTRICITY   = .0030083
INCLINATION    = 82.9304
RA_OF_ASC_NODE = 186.7874
ARG_OF_PERICENTER = 63.3005
MEAN_ANOMALY   = 109.4315

EPHEMERIS_TYPE = 0
CLASSIFICATION_TYPE = U
NORAD_CAT_ID   = 21938
ELEMENT_SET_NO = 999
REV_AT_EPOCH   = 69501
BSTAR          = .20597E-3
MEAN_MOTION_DOT = .214E-5
MEAN_MOTION_DDOT = 0

CCSDS_OMM_VERS = 2.0
CREATION_DATE  = 
ORIGINATOR     = 

OBJECT_NAME    = USA 81
OBJECT_ID      = 1992-023A
CENTER_NAME    = EARTH
REF_FRAME      = TEME
TIME_SYSTEM    = UTC
MEAN_ELEMENT_THEORY = SGP/SGP4

EPOCH          = 2026-01-23T19:26:12.710976
MEAN_MOTION    = 14.32347985
ECCENTRICITY   = .00021005
INCLINATION    = 85.0111
RA_OF_ASC_NODE = 157.3162
ARG_OF_PERICENTER = 115.0539
MEAN_ANOMALY   = 245.0872

EPHEMERIS_TYPE = 0
CLASSIFICATION_TYPE = U
NORAD_CAT_ID   = 21949
ELEMENT_SET_NO = 999
REV_AT_EPOCH   = 8836
BSTAR          = .14577013E-3
MEAN_MOTION_DOT = .413E-5
MEAN_MOTION_DDOT = 0

CCSDS_OMM_VERS = 2.0
CREATION_DATE  = 
ORIGINATOR     = 

OBJECT_NAME    = COSMOS 2219
OBJECT_ID      = 1992-076A
CENTER_NAME    = EARTH
REF_FRAME      = TEME
TIME_SYSTEM    = UTC
MEAN_ELEMENT_THEORY = SGP/SGP4

EPOCH          = 2026-01-23T22:56:13.596288
MEAN_MOTION    = 14.14081240
ECCENTRICITY   = .0020825
INCLINATION    = 71.0613
RA_OF_ASC_NODE = 111.5877
ARG_OF_PERICENTER = 269.1400
MEAN_ANOMALY   = 90.7337

EPHEMERIS_TYPE = 0
CLASSIFICATION_TYPE = U
NORAD_CAT_ID   = 22219
ELEMENT_SET_NO = 999
REV_AT_EPOCH   = 71205
BSTAR          = -.26639E-4
MEAN_MOTION_DOT = -.98E-6
MEAN_MOTION_DDOT = 0

CCSDS_OMM_VERS = 2.0
CREATION_DATE  = 
ORIGINATOR     = 

OBJECT_NAME    = SL-16 R/B
OBJECT_ID      = 1992-076B
CENTER_NAME    = EARTH
REF_FRAME      = TEME
TIME_SYSTEM    = UTC
MEAN_ELEMENT_THEORY = SGP/SGP4

EPOCH          = 2026-01-24T03:47:37.572000
MEAN_MOTION    = 14.16850587
ECCENTRICITY   = .0012417
INCLINATION    = 71.0000
RA_OF_ASC_NODE = 282.1800
ARG_OF_PERICENTER = 173.5515
MEAN_ANOMALY   = 298.8622

EPHEMERIS_TYPE = 0
CLASSIFICATION_TYPE = U
NORAD_CAT_ID   = 22220
ELEMENT_SET_NO = 999
REV_AT_EPOCH   = 71552
BSTAR          = -.30252E-4
MEAN_MOTION_DOT = -.109E-5
MEAN_MOTION_DDOT = 0

CCSDS_OMM_VERS = 2.0
CREATION_DATE  = 
ORIGINATOR     = 

OBJECT_NAME    = COSMOS 2221
OBJECT_ID      = 1992-080A
CENTER_NAME    = EARTH
REF_FRAME      = TEME
TIME_SYSTEM    = UTC
MEAN_ELEMENT_THEORY = SGP/SGP4

EPOCH          = 2026-01-24T02:15:22.279968
MEAN_MOTION    = 14.95990110
ECCENTRICITY   = .0014279
INCLINATION    = 82.5066
RA_OF_ASC_NODE = 321.7833
ARG_OF_PERICENTER = 349.9500
MEAN_ANOMALY   = 10.1434

EPHEMERIS_TYPE = 0
CLASSIFICATION_TYPE = U
NORAD_CAT_ID   = 22236
ELEMENT_SET_NO = 999
REV_AT_EPOCH   = 77412
BSTAR          = .4084E-3
MEAN_MOTION_DOT = .4612E-4
MEAN_MOTION_DDOT = 0

CCSDS_OMM_VERS = 2.0
CREATION_DATE  = 
ORIGINATOR     = 

OBJECT_NAME    = SL-16 R/B
OBJECT_ID      = 1992-093B
CENTER_NAME    = EARTH
REF_FRAME      = TEME
TIME_SYSTEM    = UTC
MEAN_ELEMENT_THEORY = SGP/SGP4

EPOCH          = 2026-01-23T15:38:40.640064
MEAN_MOTION    = 14.15442887
ECCENTRICITY   = .00043464
INCLINATION    = 71.0222
RA_OF_ASC_NODE = 98.8159
ARG_OF_PERICENTER = 343.7062
MEAN_ANOMALY   = 16.3921

EPHEMERIS_TYPE = 0
CLASSIFICATION_TYPE = U
NORAD_CAT_ID   = 22285
ELEMENT_SET_NO = 999
REV_AT_EPOCH   = 70678
BSTAR          = .10724197E-3
MEAN_MOTION_DOT = .162E-5
MEAN_MOTION_DDOT = 0

CCSDS_OMM_VERS = 2.0
CREATION_DATE  = 
ORIGINATOR     = 

OBJECT_NAME    = COSMOS 2228
OBJECT_ID      = 1992-094A
CENTER_NAME    = EARTH
REF_FRAME      = TEME
TIME_SYSTEM    = UTC
MEAN_ELEMENT_THEORY = SGP/SGP4

EPOCH          = 2026-01-24T03:20:50.707392
MEAN_MOTION    = 14.96972986
ECCENTRICITY   = .0019614
INCLINATION    = 82.5177
RA_OF_ASC_NODE = 279.9656
ARG_OF_PERICENTER = 91.2246
MEAN_ANOMALY   = 269.1224

EPHEMERIS_TYPE = 0
CLASSIFICATION_TYPE = U
NORAD_CAT_ID   = 22286
ELEMENT_SET_NO = 999
REV_AT_EPOCH   = 76939
BSTAR          = .31136E-3
MEAN_MOTION_DOT = .3619E-4
MEAN_MOTION_DDOT = 0

